[{"OBJECT_NAME":"ONEWEB-0209","OBJECT_ID":"2021-031F","EPOCH":"2026-03-09T16:19:42.544992","MEAN_MOTION":13.14502284,"ECCENTRICITY":0.00017988,"INCLINATION":87.898,"RA_OF_ASC_NODE":309.5754,"ARG_OF_PERICENTER":76.1733,"MEAN_ANOMALY":283.9597,"EPHEMERIS_TYPE":0,"CLASSIFICATION_TYPE":"U","NORAD_CAT_ID":48215,"ELEMENT_SET_NO":999,"REV_AT_EPOCH":23530,"BSTAR":-0.00014704773,"MEAN_MOTION_DOT":-4.2e-7,"MEAN_MOTION_DDOT":0},{"OBJECT_NAME":"BREEZE-M DEB","OBJECT_ID":"2006-006BG","EPOCH":"2026-03-07T08:54:35.726112","MEAN_MOTION":5.41784951,"ECCENTRICITY":0.49081395,"INCLINATION":51.7551,"RA_OF_ASC_NODE":189.9037,"ARG_OF_PERICENTER":332.0835,"MEAN_ANOMALY":25.3036,"EPHEMERIS_TYPE":0,"CLASSIFICATION_TYPE":"U","NORAD_CAT_ID":34241,"ELEMENT_SET_NO":999,"REV_AT_EPOCH":3429,"BSTAR":0.0026140231,"MEAN_MOTION_DOT":7.94e-6,"MEAN_MOTION_DDOT":0}]
